OBJECT_NAME,OBJECT_ID,EPOCH,MEAN_MOTION,ECCENTRICITY,INCLINATION,RA_OF_ASC_NODE,ARG_OF_PERICENTER,MEAN_ANOMALY,EPHEMERIS_TYPE,CLASSIFICATION_TYPE,NORAD_CAT_ID,ELEMENT_SET_NO,REV_AT_EPOCH,BSTAR,MEAN_MOTION_DOT,MEAN_MOTION_DDOT
SES-2,2011-049A,2026-07-21T12:40:03.161568,1.00271524,.00029037,0.1437,90.7596,26.2139,285.3160,0,U,37809,999,5430,0,-.194E-5,0
ARABSAT-5C,2011-049B,2026-07-21T14:53:10.639392,1.00274865,.00037665,0.0480,359.0970,141.4274,42.1656,0,U,37810,999,5438,0,.126E-5,0
EUTELSAT 7 WEST A,2011-051A,2026-07-21T14:45:26.381088,1.00272112,.0004929,0.0606,3.1352,126.6750,23.5882,0,U,37816,999,5422,0,-.59E-6,0
QUETZSAT 1,2011-054A,2026-07-21T12:42:55.387008,1.00271477,.00029277,0.0379,278.8810,205.6370,288.4981,0,U,37826,999,5021,0,-.24E-5,0
INTELSAT 18 (IS-18),2011-056A,2026-07-21T13:56:08.606688,1.00271473,.00019581,0.0173,304.0542,181.7952,202.5115,0,U,37834,999,5415,0,.54E-6,0
EUTELSAT 16A,2011-057A,2026-07-21T14:52:03.247392,1.00270876,.00055094,0.0478,36.5621,85.0057,56.8141,0,U,37836,999,768,0,.106E-5,0
VIASAT-1,2011-059A,2026-07-21T14:14:36.836160,1.00269929,.00026598,0.0206,52.5816,62.1921,283.1299,0,U,37843,999,4766,0,0,0
ASIASAT 7,2011-069A,2026-07-21T14:23:34.670112,1.00268487,.0001477,0.0557,259.4398,194.0592,167.2347,0,U,37933,999,4520,0,-.331E-5,0
BEIDOU-2 IGSO-5,2011-073A,2026-07-02T17:30:18.330912,1.00270596,.01145273,47.6496,271.3544,222.0502,141.5350,0,U,37948,999,5329,0,-.128E-5,0
LUCH-5A,2011-074B,2026-07-21T10:26:53.331072,1.00274538,.00028464,8.8385,73.3022,60.8161,128.8299,0,U,37951,999,5339,0,-.54E-6,0
NIGCOMSAT 1R,2011-077A,2026-07-21T14:59:36.780000,1.00274640,.0002298,0.0400,107.6486,245.0972,214.0423,0,U,38014,999,5330,0,.146E-5,0
WGS F4 (USA 233),2012-003A,2026-07-21T15:07:37.769664,1.00271296,.00000752,0.0190,57.5630,199.9342,357.2052,0,U,38070,999,4449,0,-.213E-5,0
SES-4,2012-007A,2026-07-21T14:41:04.299648,1.00270168,.00024127,0.0220,30.0501,94.0261,13.5636,0,U,38087,999,5257,0,-.167E-5,0
BEIDOU-2 G5,2012-008A,2026-07-21T15:04:13.837152,1.00272736,.00071714,3.6578,69.4821,271.0245,243.5938,0,U,38091,999,5271,0,.56E-6,0
MUOS-1,2012-009A,2026-07-21T14:18:58.917600,1.00271375,.00563979,5.5441,47.1030,3.7234,3.3189,0,U,38093,999,5279,0,-.13E-5,0
INTELSAT 22 (IS-22),2012-011A,2026-07-21T15:08:05.966304,1.00271445,.00020058,0.0029,349.8655,152.5194,96.1253,0,U,38098,999,753,0,-.57E-6,0
APSTAR-7,2012-013A,2026-07-21T15:09:20.845728,1.00271785,.0003323,0.0370,96.0349,32.3509,114.8374,0,U,38107,999,5215,0,-.1E-5,0
YAHSAT 1B,2012-016A,2026-07-21T15:01:06.636000,1.00271532,.00026856,0.0890,89.1127,26.4432,96.7083,0,U,38245,999,4595,0,.128E-5,0
AEHF-2 (USA 235),2012-019A,2026-07-21T09:34:44.254848,1.00271785,.00021419,6.7269,57.2246,66.8476,302.2886,0,U,38254,999,733,0,-.138E-5,0
JCSAT-13,2012-023A,2026-07-21T15:22:50.337696,1.00272010,.0002368,0.0140,14.1933,109.8568,170.0643,0,U,38331,999,5188,0,-.354E-5,0
VINASAT-2,2012-023B,2026-07-21T13:42:24.922656,1.00271542,.00023994,0.0132,4.8711,111.7004,160.2044,0,U,38332,999,4700,0,-.327E-5,0
NIMIQ 6,2012-026A,2026-07-21T14:21:28.679040,1.00271310,.00029673,0.0563,263.9258,218.2998,301.3939,0,U,38342,999,5075,0,-.172E-5,0
ZHONGXING-2A,2012-028A,2026-07-21T16:58:09.818112,1.00274777,.0001602,1.5415,83.4456,28.8418,179.9498,0,U,38352,999,5164,0,-.292E-5,0
INTELSAT 19 (IS-19),2012-030A,2026-07-21T13:52:08.989248,1.00272948,.00031255,0.0177,46.9645,72.8930,193.5057,0,U,38356,999,5079,0,-.55E-6,0
ECHOSTAR 17,2012-035A,2026-07-21T06:00:38.849760,1.00272811,.00021288,0.0196,60.0393,57.5425,164.4854,0,U,38551,999,5140,0,-.75E-6,0
METEOSAT-10 (MSG-3),2012-035B,2026-07-21T07:56:56.709888,1.00272785,.00014479,4.7505,60.8511,18.6180,338.9060,0,U,38552,999,5119,0,-.9E-7,0
SES-5,2012-036A,2026-07-21T14:48:56.046240,1.00272397,.0002075,0.0452,318.7186,159.8858,47.9782,0,U,38652,999,4480,0,.36E-6,0
INTELSAT 20 (IS-20),2012-043A,2026-07-21T15:06:58.572576,1.00271803,.00013913,0.0152,76.5840,107.7604,50.2866,0,U,38740,999,5109,0,-.23E-6,0
HYLAS 2,2012-043B,2026-07-20T19:37:38.002080,1.00271719,.00025277,2.5120,80.6624,56.7589,22.9978,0,U,38741,999,5111,0,-.259E-5,0
INTELSAT 21 (IS-21),2012-045A,2026-07-21T12:48:17.372160,1.00271281,.00018443,0.0392,252.2584,237.6549,303.4534,0,U,38749,999,5086,0,-.283E-5,0
ASTRA 2F,2012-051A,2026-07-21T14:55:32.911680,1.00273201,.00032276,0.0727,253.3739,287.4191,10.6240,0,U,38778,999,4148,0,.152E-5,0
GSAT-10,2012-051B,2026-07-21T15:11:13.165728,1.00272679,.00076207,0.0745,263.6320,192.3187,154.2549,0,U,38779,999,5044,0,-.163E-5,0
