SES-2                   
1 37809U 11049A   26202.52781437 -.00000194  00000+0  00000+0 0  9994
2 37809   0.1437  90.7596 0002903  26.2139 285.3160  1.00271524 54306
ARABSAT-5C              
1 37810U 11049B   26202.62026203  .00000126  00000+0  00000+0 0  9994
2 37810   0.0480 359.0970 0003766 141.4274  42.1656  1.00274865 54388
EUTELSAT 7 WEST A       
1 37816U 11051A   26202.61488867 -.00000059  00000+0  00000+0 0  9996
2 37816   0.0606   3.1352 0004929 126.6750  23.5882  1.00272112 54221
QUETZSAT 1              
1 37826U 11054A   26202.52980772 -.00000240  00000+0  00000+0 0  9994
2 37826   0.0379 278.8810 0002927 205.6370 288.4981  1.00271477 50211
INTELSAT 18 (IS-18)     
1 37834U 11056A   26202.58065517  .00000054  00000+0  00000+0 0  9994
2 37834   0.0173 304.0542 0001958 181.7952 202.5115  1.00271473 54158
EUTELSAT 16A            
1 37836U 11057A   26202.61948203  .00000106  00000+0  00000+0 0  9991
2 37836   0.0478  36.5621 0005509  85.0057  56.8141  1.00270876  7682
VIASAT-1                
1 37843U 11059A   26202.59348190  .00000000  00000+0  00000+0 0  9990
2 37843   0.0206  52.5816 0002659  62.1921 283.1299  1.00269929 47660
ASIASAT 7               
1 37933U 11069A   26202.59970683 -.00000331  00000+0  00000+0 0  9997
2 37933   0.0557 259.4398 0001477 194.0592 167.2347  1.00268487 45200
BEIDOU-2 IGSO-5         
1 37948U 11073A   26183.72937883 -.00000128  00000+0  00000+0 0  9990
2 37948  47.6496 271.3544 0114527 222.0502 141.5350  1.00270596 53296
LUCH-5A                 
1 37951U 11074B   26202.43533948 -.00000054  00000+0  00000+0 0  9997
2 37951   8.8385  73.3022 0002846  60.8161 128.8299  1.00274538 53397
NIGCOMSAT 1R            
1 38014U 11077A   26202.62473125  .00000146  00000+0  00000+0 0  9993
2 38014   0.0400 107.6486 0002298 245.0972 214.0423  1.00274640 53305
WGS F4 (USA 233)        
1 38070U 12003A   26202.63029826 -.00000213  00000+0  00000+0 0  9997
2 38070   0.0190  57.5630 0000075 199.9342 357.2052  1.00271296 44498
SES-4                   
1 38087U 12007A   26202.61185532 -.00000167  00000+0  00000+0 0  9992
2 38087   0.0220  30.0501 0002412  94.0261  13.5636  1.00270168 52570
BEIDOU-2 G5             
1 38091U 12008A   26202.62793793  .00000056  00000+0  00000+0 0  9999
2 38091   3.6578  69.4821 0007171 271.0245 243.5938  1.00272736 52716
MUOS-1                  
1 38093U 12009A   26202.59651525 -.00000130  00000+0  00000+0 0  9998
2 38093   5.5441  47.1030 0056397   3.7234   3.3189  1.00271375 52791
INTELSAT 22 (IS-22)     
1 38098U 12011A   26202.63062461 -.00000057  00000+0  00000+0 0  9994
2 38098   0.0029 349.8655 0002005 152.5194  96.1253  1.00271445  7530
APSTAR-7                
1 38107U 12013A   26202.63149127 -.00000100  00000+0  00000+0 0  9991
2 38107   0.0370  96.0349 0003323  32.3509 114.8374  1.00271785 52157
YAHSAT 1B               
1 38245U 12016A   26202.62577125  .00000128  00000+0  00000+0 0  9998
2 38245   0.0890  89.1127 0002685  26.4432  96.7083  1.00271532 45958
AEHF-2 (USA 235)        
1 38254U 12019A   26202.39912332 -.00000138  00000+0  00000+0 0  9990
2 38254   6.7269  57.2246 0002141  66.8476 302.2886  1.00271785  7338
JCSAT-13                
1 38331U 12023A   26202.64086039 -.00000354  00000+0  00000+0 0  9995
2 38331   0.0140  14.1933 0002368 109.8568 170.0643  1.00272010 51888
VINASAT-2               
1 38332U 12023B   26202.57112179 -.00000327  00000+0  00000+0 0  9993
2 38332   0.0132   4.8711 0002399 111.7004 160.2044  1.00271542 47005
NIMIQ 6                 
1 38342U 12026A   26202.59824860 -.00000172  00000+0  00000+0 0  9994
2 38342   0.0563 263.9258 0002967 218.2998 301.3939  1.00271310 50754
ZHONGXING-2A            
1 38352U 12028A   26202.70705808 -.00000292  00000+0  00000+0 0  9993
2 38352   1.5415  83.4456 0001602  28.8418 179.9498  1.00274777 51647
INTELSAT 19 (IS-19)     
1 38356U 12030A   26202.57788182 -.00000055  00000+0  00000+0 0  9998
2 38356   0.0177  46.9645 0003125  72.8930 193.5057  1.00272948 50790
ECHOSTAR 17             
1 38551U 12035A   26202.25044965 -.00000075  00000+0  00000+0 0  9991
2 38551   0.0196  60.0393 0002128  57.5425 164.4854  1.00272811 51406
METEOSAT-10 (MSG-3)     
1 38552U 12035B   26202.33121192 -.00000009  00000+0  00000+0 0  9996
2 38552   4.7505  60.8511 0001447  18.6180 338.9060  1.00272785 51194
SES-5                   
1 38652U 12036A   26202.61731535  .00000036  00000+0  00000+0 0  9996
2 38652   0.0452 318.7186 0002075 159.8858  47.9782  1.00272397 44803
INTELSAT 20 (IS-20)     
1 38740U 12043A   26202.62984459 -.00000023  00000+0  00000+0 0  9995
2 38740   0.0152  76.5840 0001391 107.7604  50.2866  1.00271803 51095
HYLAS 2                 
1 38741U 12043B   26201.81780095 -.00000259  00000+0  00000+0 0  9997
2 38741   2.5120  80.6624 0002527  56.7589  22.9978  1.00271719 51110
INTELSAT 21 (IS-21)     
1 38749U 12045A   26202.53353440 -.00000283  00000+0  00000+0 0  9994
2 38749   0.0392 252.2584 0001844 237.6549 303.4534  1.00271281 50861
ASTRA 2F                
1 38778U 12051A   26202.62190870  .00000152  00000+0  00000+0 0  9993
2 38778   0.0727 253.3739 0003227 287.4191  10.6240  1.00273201 41485
GSAT-10                 
1 38779U 12051B   26202.63279127 -.00000163  00000+0  00000+0 0  9991
2 38779   0.0745 263.6320 0007620 192.3187 154.2549  1.00272679 50447
